{
    "links": {
        "self": "http://www.neowsapp.com/rest/v1/neo/3563424?api_key=iIulBulltgU6a56xZRHN4H3l9WmuAYTsLGpBGhQ2"
    },
    "id": "3563424",
    "neo_reference_id": "3563424",
    "name": "(2011 GO65)",
    "designation": "2011 GO65",
    "nasa_jpl_url": "http://ssd.jpl.nasa.gov/sbdb.cgi?sstr=3563424",
    "absolute_magnitude_h": 22.9,
    "estimated_diameter": {
        "kilometers": {
            "estimated_diameter_min": 0.0699125232,
            "estimated_diameter_max": 0.1563291544
        },
        "meters": {
            "estimated_diameter_min": 69.9125232246,
            "estimated_diameter_max": 156.3291544087
        },
        "miles": {
            "estimated_diameter_min": 0.0434416145,
            "estimated_diameter_max": 0.097138403
        },
        "feet": {
            "estimated_diameter_min": 229.3718026961,
            "estimated_diameter_max": 512.8909429502
        }
    },
    "is_potentially_hazardous_asteroid": false,
    "close_approach_data": [
        {
            "close_approach_date": "2003-05-08",
            "close_approach_date_full": "2003-May-08 20:12",
            "epoch_date_close_approach": 1052424720000,
            "relative_velocity": {
                "kilometers_per_second": "8.4681911536",
                "kilometers_per_hour": "30485.4881529201",
                "miles_per_hour": "18942.4967914631"
            },
            "miss_distance": {
                "astronomical": "0.3126056139",
                "lunar": "121.6035838071",
                "kilometers": "46765133.989482393",
                "miles": "29058506.8001993034"
            },
            "orbiting_body": "Earth"
        },
        {
            "close_approach_date": "2011-05-05",
            "close_approach_date_full": "2011-May-05 05:17",
            "epoch_date_close_approach": 1304572620000,
            "relative_velocity": {
                "kilometers_per_second": "5.7842269491",
                "kilometers_per_hour": "20823.2170166017",
                "miles_per_hour": "12938.7372623434"
            },
            "miss_distance": {
                "astronomical": "0.1513821884",
                "lunar": "58.8876712876",
                "kilometers": "22646452.940578708",
                "miles": "14071853.3367658504"
            },
            "orbiting_body": "Earth"
        },
        {
            "close_approach_date": "2019-05-03",
            "close_approach_date_full": "2019-May-03 03:41",
            "epoch_date_close_approach": 1556854860000,
            "relative_velocity": {
                "kilometers_per_second": "6.8328667205",
                "kilometers_per_hour": "24598.320193625",
                "miles_per_hour": "15284.4395669777"
            },
            "miss_distance": {
                "astronomical": "0.2332815129",
                "lunar": "90.7465085181",
                "kilometers": "34898417.440217523",
                "miles": "21684871.0565188974"
            },
            "orbiting_body": "Earth"
        },
        {
            "close_approach_date": "2027-05-05",
            "close_approach_date_full": "2027-May-05 03:23",
            "epoch_date_close_approach": 1809487380000,
            "relative_velocity": {
                "kilometers_per_second": "9.7543494524",
                "kilometers_per_hour": "35115.6580285491",
                "miles_per_hour": "21819.5042900171"
            },
            "miss_distance": {
                "astronomical": "0.439829675",
                "lunar": "171.093743575",
                "kilometers": "65797582.54279225",
                "miles": "40884721.94234305"
            },
            "orbiting_body": "Earth"
        }
    ],
    "orbital_data": {
        "orbit_id": "11",
        "orbit_determination_date": "2017-04-06 08:53:42",
        "first_observation_date": "2011-04-13",
        "last_observation_date": "2011-05-21",
        "data_arc_in_days": 38,
        "observations_used": 43,
        "orbit_uncertainty": "6",
        "minimum_orbit_intersection": ".150422",
        "jupiter_tisserand_invariant": "3.816",
        "epoch_osculation": "2459000.5",
        "eccentricity": ".3956307870188961",
        "semi_major_axis": "1.917006458451872",
        "inclination": "8.796614147832207",
        "ascending_node_longitude": "44.15636696809116",
        "orbital_period": "969.4686972955427",
        "perihelion_distance": "1.158579684574251",
        "perihelion_argument": "176.9178603181928",
        "aphelion_distance": "2.675433232329492",
        "perihelion_time": "2458595.542753542323",
        "mean_anomaly": "150.3757770946587",
        "mean_motion": ".3713374150235755",
        "equinox": "J2000",
        "orbit_class": {
            "orbit_class_type": "AMO",
            "orbit_class_description": "Near-Earth asteroid orbits similar to that of 1221 Amor",
            "orbit_class_range": "1.017 AU < q (perihelion) < 1.3 AU"
        }
    },
    "is_sentry_object": false
}